start=new Date('2022-01-16T00:00:00.000Z').valueOf();
sats=[{"ARG_OF_PERICENTER":"106.1027","MEAN_ELEMENT_THEORY":"SGP4","DECAY_DATE":null,"REF_FRAME":"TEME","CENTER_NAME":"EARTH","REV_AT_EPOCH":"10097","BSTAR":"0.00007618900000","TLE_LINE1":"1 45395U 20019AM  22015.55424999  .00000854  00000-0  76189-4 0  9997","RA_OF_ASC_NODE":"103.8470","LAUNCH_DATE":"2020-03-18","MEAN_MOTION_DOT":"0.00000854","APOAPSIS":"547.920","EPOCH":"2022-01-15T13:18:07.199136","SEMIMAJOR_AXIS":"6925.346","NORAD_CAT_ID":"45395","ECCENTRICITY":"0.00010230","OBJECT_TYPE":"PAYLOAD","PERIOD":"95.592","MEAN_MOTION_DDOT":"0.0000000000000","FILE":"3273762","TIME_SYSTEM":"UTC","INCLINATION":"53.0551","TLE_LINE2":"2 45395  53.0551 103.8470 0001023 106.1027 254.0074 15.06400750100970","PERIAPSIS":"546.503","OBJECT_ID":"2020-019AM","SITE":"AFETR","MEAN_MOTION":"15.06400750","CLASSIFICATION_TYPE":"U","ELEMENT_SET_NO":"999","GP_ID":"193914482","MEAN_ANOMALY":"254.0074","RCS_SIZE":"LARGE","OBJECT_NAME":"STARLINK-1297","EPHEMERIS_TYPE":"0","COUNTRY_CODE":"US"},{"MEAN_ELEMENT_THEORY":"SGP4","ARG_OF_PERICENTER":"100.6540","CENTER_NAME":"EARTH","REF_FRAME":"TEME","DECAY_DATE":null,"REV_AT_EPOCH":"10153","TLE_LINE1":"1 45396U 20019AN  22015.73486287 -.00000415  00000-0 -89770-5 0  9992","BSTAR":"-0.00000897700000","LAUNCH_DATE":"2020-03-18","MEAN_MOTION_DOT":"-0.00000415","APOAPSIS":"548.051","RA_OF_ASC_NODE":"103.0252","SEMIMAJOR_AXIS":"6925.343","NORAD_CAT_ID":"45396","EPOCH":"2022-01-15T17:38:12.151968","OBJECT_TYPE":"PAYLOAD","ECCENTRICITY":"0.00012180","MEAN_MOTION_DDOT":"0.0000000000000","FILE":"3274074","PERIOD":"95.592","TIME_SYSTEM":"UTC","TLE_LINE2":"2 45396  53.0539 103.0252 0001218 100.6540 259.4586 15.06401941101535","INCLINATION":"53.0539","PERIAPSIS":"546.364","SITE":"AFETR","OBJECT_ID":"2020-019AN","CLASSIFICATION_TYPE":"U","MEAN_MOTION":"15.06401941","ELEMENT_SET_NO":"999","GP_ID":"193944859","MEAN_ANOMALY":"259.4586","RCS_SIZE":"LARGE","OBJECT_NAME":"STARLINK-1303","COUNTRY_CODE":"US","EPHEMERIS_TYPE":"0"},{"CLASSIFICATION_TYPE":"U","MEAN_MOTION":"15.06434876","OBJECT_ID":"2020-019AP","SITE":"AFETR","ELEMENT_SET_NO":"999","TLE_LINE2":"2 45397  53.0544 103.8667 0001124  94.0106 266.1011 15.06434876101610","INCLINATION":"53.0544","PERIAPSIS":"546.328","OBJECT_NAME":"STARLINK-1307","RCS_SIZE":"LARGE","COUNTRY_CODE":"US","EPHEMERIS_TYPE":"0","GP_ID":"193913982","MEAN_ANOMALY":"266.1011","REV_AT_EPOCH":"10161","APOAPSIS":"547.885","LAUNCH_DATE":"2020-03-18","MEAN_MOTION_DOT":"-0.00003728","RA_OF_ASC_NODE":"103.8667","TLE_LINE1":"1 45397U 20019AP  22015.54686869 -.00003728  00000-0 -23128-3 0  9993","BSTAR":"-0.00023128000000","MEAN_ELEMENT_THEORY":"SGP4","ARG_OF_PERICENTER":"94.0106","CENTER_NAME":"EARTH","DECAY_DATE":null,"REF_FRAME":"TEME","FILE":"3273762","MEAN_MOTION_DDOT":"0.0000000000000","PERIOD":"95.590","TIME_SYSTEM":"UTC","OBJECT_TYPE":"PAYLOAD","ECCENTRICITY":"0.00011240","SEMIMAJOR_AXIS":"6925.242","NORAD_CAT_ID":"45397","EPOCH":"2022-01-15T13:07:29.454816"},{"RA_OF_ASC_NODE":"103.8974","MEAN_MOTION_DOT":"0.00003645","LAUNCH_DATE":"2020-03-18","APOAPSIS":"548.156","BSTAR":"0.00026346000000","TLE_LINE1":"1 45398U 20019AQ  22015.53950383  .00003645  00000-0  26346-3 0  9999","REV_AT_EPOCH":"10154","REF_FRAME":"TEME","DECAY_DATE":null,"CENTER_NAME":"EARTH","ARG_OF_PERICENTER":"95.3483","MEAN_ELEMENT_THEORY":"SGP4","TIME_SYSTEM":"UTC","PERIOD":"95.592","FILE":"3273762","MEAN_MOTION_DDOT":"0.0000000000000","ECCENTRICITY":"0.00013710","OBJECT_TYPE":"PAYLOAD","EPOCH":"2022-01-15T12:56:53.130912","NORAD_CAT_ID":"45398","SEMIMAJOR_AXIS":"6925.341","ELEMENT_SET_NO":"999","MEAN_MOTION":"15.06402306","CLASSIFICATION_TYPE":"U","SITE":"AFETR","OBJECT_ID":"2020-019AQ","PERIAPSIS":"546.257","INCLINATION":"53.0541","TLE_LINE2":"2 45398  53.0541 103.8974 0001371  95.3483 264.7662 15.06402306101546","EPHEMERIS_TYPE":"0","COUNTRY_CODE":"US","OBJECT_NAME":"STARLINK-1312","RCS_SIZE":"LARGE","MEAN_ANOMALY":"264.7662","GP_ID":"193914233"},{"SEMIMAJOR_AXIS":"6925.330","NORAD_CAT_ID":"45399","EPOCH":"2022-01-15T13:56:36.335904","OBJECT_TYPE":"PAYLOAD","ECCENTRICITY":"0.00011170","MEAN_MOTION_DDOT":"0.0000000000000","FILE":"3274074","PERIOD":"95.592","TIME_SYSTEM":"UTC","MEAN_ELEMENT_THEORY":"SGP4","ARG_OF_PERICENTER":"74.9744","CENTER_NAME":"EARTH","REF_FRAME":"TEME","DECAY_DATE":null,"REV_AT_EPOCH":"10174","TLE_LINE1":"1 45399U 20019AR  22015.58097611  .00001441  00000-0  11556-3 0  9990","BSTAR":"0.00011556000000","LAUNCH_DATE":"2020-03-18","APOAPSIS":"547.969","MEAN_MOTION_DOT":"0.00001441","RA_OF_ASC_NODE":"93.7137","GP_ID":"193946105","MEAN_ANOMALY":"285.1369","RCS_SIZE":"LARGE","OBJECT_NAME":"STARLINK-1255","COUNTRY_CODE":"US","EPHEMERIS_TYPE":"0","TLE_LINE2":"2 45399  53.0549  93.7137 0001117  74.9744 285.1369 15.06405977101744","INCLINATION":"53.0549","PERIAPSIS":"546.422","SITE":"AFETR","OBJECT_ID":"2020-019AR","CLASSIFICATION_TYPE":"U","MEAN_MOTION":"15.06405977","ELEMENT_SET_NO":"999"},{"TIME_SYSTEM":"UTC","FILE":"3274074","MEAN_MOTION_DDOT":"0.0000000000000","PERIOD":"95.591","OBJECT_TYPE":"PAYLOAD","ECCENTRICITY":"0.00012930","NORAD_CAT_ID":"45400","SEMIMAJOR_AXIS":"6925.314","EPOCH":"2022-01-15T17:28:54.312960","MEAN_MOTION_DOT":"0.00001483","LAUNCH_DATE":"2020-03-18","APOAPSIS":"548.074","RA_OF_ASC_NODE":"93.0665","TLE_LINE1":"1 45400U 20019AS  22015.72840640  .00001483  00000-0  11842-3 0  9991","BSTAR":"0.00011842000000","REV_AT_EPOCH":"10169","CENTER_NAME":"EARTH","DECAY_DATE":null,"REF_FRAME":"TEME","MEAN_ELEMENT_THEORY":"SGP4","ARG_OF_PERICENTER":"70.2480","COUNTRY_CODE":"US","EPHEMERIS_TYPE":"0","OBJECT_NAME":"STARLINK-1213","RCS_SIZE":"LARGE","MEAN_ANOMALY":"289.8648","GP_ID":"193944360","ELEMENT_SET_NO":"999","CLASSIFICATION_TYPE":"U","MEAN_MOTION":"15.06411332","SITE":"AFETR","OBJECT_ID":"2020-019AS","PERIAPSIS":"546.283","TLE_LINE2":"2 45400  53.0556  93.0665 0001293  70.2480 289.8648 15.06411332101692","INCLINATION":"53.0556"},{"REV_AT_EPOCH":"10176","TLE_LINE1":"1 45401U 20019AT  22015.72472708  .00001309  00000-0  10679-3 0  9992","BSTAR":"0.00010679000000","APOAPSIS":"548.045","LAUNCH_DATE":"2020-03-18","MEAN_MOTION_DOT":"0.00001309","RA_OF_ASC_NODE":"93.0738","MEAN_ELEMENT_THEORY":"SGP4","ARG_OF_PERICENTER":"92.4668","CENTER_NAME":"EARTH","DECAY_DATE":null,"REF_FRAME":"TEME","FILE":"3274074","MEAN_MOTION_DDOT":"0.0000000000000","PERIOD":"95.592","TIME_SYSTEM":"UTC","SEMIMAJOR_AXIS":"6925.359","NORAD_CAT_ID":"45401","EPOCH":"2022-01-15T17:23:36.419712","OBJECT_TYPE":"PAYLOAD","ECCENTRICITY":"0.00011860","OBJECT_ID":"2020-019AT","SITE":"AFETR","CLASSIFICATION_TYPE":"U","MEAN_MOTION":"15.06396632","ELEMENT_SET_NO":"999","TLE_LINE2":"2 45401  53.0553  93.0738 0001186  92.4668 267.6456 15.06396632101760","INCLINATION":"53.0553","PERIAPSIS":"546.403","RCS_SIZE":"LARGE","OBJECT_NAME":"STARLINK-1256","COUNTRY_CODE":"US","EPHEMERIS_TYPE":"0","GP_ID":"193944610","MEAN_ANOMALY":"267.6456"},{"REF_FRAME":"TEME","DECAY_DATE":null,"CENTER_NAME":"EARTH","ARG_OF_PERICENTER":"98.1764","MEAN_ELEMENT_THEORY":"SGP4","BSTAR":"0.00011846000000","TLE_LINE1":"1 45402U 20019AU  22015.72103761  .00001484  00000-0  11846-3 0  9994","RA_OF_ASC_NODE":"93.0838","LAUNCH_DATE":"2020-03-18","APOAPSIS":"548.086","MEAN_MOTION_DOT":"0.00001484","REV_AT_EPOCH":"10177","EPOCH":"2022-01-15T17:18:17.649504","SEMIMAJOR_AXIS":"6925.326","NORAD_CAT_ID":"45402","ECCENTRICITY":"0.00012920","OBJECT_TYPE":"PAYLOAD","TIME_SYSTEM":"UTC","PERIOD":"95.592","MEAN_MOTION_DDOT":"0.0000000000000","FILE":"3274074","PERIAPSIS":"546.296","INCLINATION":"53.0548","TLE_LINE2":"2 45402  53.0548  93.0838 0001292  98.1764 261.9371 15.06407361101770","ELEMENT_SET_NO":"999","SITE":"AFETR","OBJECT_ID":"2020-019AU","MEAN_MOTION":"15.06407361","CLASSIFICATION_TYPE":"U","MEAN_ANOMALY":"261.9371","GP_ID":"193945860","EPHEMERIS_TYPE":"0","COUNTRY_CODE":"US","RCS_SIZE":"LARGE","OBJECT_NAME":"STARLINK-1257"},{"REV_AT_EPOCH":"10173","TLE_LINE1":"1 45403U 20019AV  22015.53674926  .00005391  00000-0  38062-3 0  9990","BSTAR":"0.00038062000000","APOAPSIS":"548.064","LAUNCH_DATE":"2020-03-18","MEAN_MOTION_DOT":"0.00005391","RA_OF_ASC_NODE":"93.9238","MEAN_ELEMENT_THEORY":"SGP4","ARG_OF_PERICENTER":"86.4669","CENTER_NAME":"EARTH","REF_FRAME":"TEME","DECAY_DATE":null,"MEAN_MOTION_DDOT":"0.0000000000000","FILE":"3273762","PERIOD":"95.593","TIME_SYSTEM":"UTC","SEMIMAJOR_AXIS":"6925.377","NORAD_CAT_ID":"45403","EPOCH":"2022-01-15T12:52:55.136064","OBJECT_TYPE":"PAYLOAD","ECCENTRICITY":"0.00011870","SITE":"AFETR","OBJECT_ID":"2020-019AV","CLASSIFICATION_TYPE":"U","MEAN_MOTION":"15.06390683","ELEMENT_SET_NO":"999","TLE_LINE2":"2 45403  53.0557  93.9238 0001187  86.4669 273.6456 15.06390683101739","INCLINATION":"53.0557","PERIAPSIS":"546.420","RCS_SIZE":"LARGE","OBJECT_NAME":"STARLINK-1259","COUNTRY_CODE":"US","EPHEMERIS_TYPE":"0","GP_ID":"193914483","MEAN_ANOMALY":"273.6456"},{"EPOCH":"2022-01-15T16:19:54.805152","SEMIMAJOR_AXIS":"6925.339","NORAD_CAT_ID":"45404","ECCENTRICITY":"0.00012440","OBJECT_TYPE":"PAYLOAD","TIME_SYSTEM":"UTC","PERIOD":"95.592","MEAN_MOTION_DDOT":"0.0000000000000","FILE":"3274074","REF_FRAME":"TEME","DECAY_DATE":null,"CENTER_NAME":"EARTH","ARG_OF_PERICENTER":"73.4841","MEAN_ELEMENT_THEORY":"SGP4","BSTAR":"0.00010815000000","TLE_LINE1":"1 45404U 20019AW  22015.68049543  .00001330  00000-0  10815-3 0  9993","RA_OF_ASC_NODE":"93.2617","LAUNCH_DATE":"2020-03-18","APOAPSIS":"548.065","MEAN_MOTION_DOT":"0.00001330","REV_AT_EPOCH":"10166","MEAN_ANOMALY":"286.6284","GP_ID":"193944860","EPHEMERIS_TYPE":"0","COUNTRY_CODE":"US","RCS_SIZE":"LARGE","OBJECT_NAME":"STARLINK-1260","PERIAPSIS":"546.342","INCLINATION":"53.0538","TLE_LINE2":"2 45404  53.0538  93.2617 0001244  73.4841 286.6284 15.06403162101667","ELEMENT_SET_NO":"999","SITE":"AFETR","OBJECT_ID":"2020-019AW","MEAN_MOTION":"15.06403162","CLASSIFICATION_TYPE":"U"}];
